[Satellite]
VERSION=1.1
NAME=NOAA-18
NICKNAME=NOAA-18
TLE1=1 28654U 05018A   22342.42814302  .00000260  00000+0  16401-3 0  9998
TLE2=2 28654  98.9326  52.5785 0014121 196.0759 163.9966 14.12818409904542
STATUS=4
